0 FENGYUN 1C DEB
1 30261U 99025XW  13282.78708455  .00004447  00000-0  45979-3 0   398
2 30261 098.8110 120.8485 0229019 247.7682 173.3864 14.73287039360799
0 FENGYUN 1C DEB
1 30261U 99025XW  13283.80627553  .00006422  00000-0  65987-3 0   409
2 30261 098.8110 121.9552 0229001 244.5717 179.0253 14.73292346360940
0 FENGYUN 1C DEB
1 30261U 99025XW  13286.79444567  .00004929  00000-0  50813-3 0   426
2 30261 098.8103 125.2011 0229006 235.1727 188.0441 14.73321961361385
0 FENGYUN 1C DEB
1 30261U 99025XW  13287.81382214  .00007775  00000-0  79607-3 0   435
2 30261 098.8099 126.3084 0229011 231.9609 194.8185 14.73330759361532
0 FENGYUN 1C DEB
1 30261U 99025XW  13289.11431459  .00007762  00000-0  79433-3 0   440
2 30261 098.8095 127.7211 0228986 227.8744 252.6808 14.73351604361727
0 FENGYUN 1C DEB
1 30261U 99025XW  13290.52316427  .00007070  00000-0  72400-3 0   454
2 30261 098.8089 129.2517 0228984 223.4537 165.3638 14.73368270361937
0 FENGYUN 1C DEB
1 30261U 99025XW  13291.54673162  .00007251  00000-0  74210-3 0   462
2 30261 098.8087 130.3635 0228968 220.2254 194.5438 14.73377406362082
0 FENGYUN 1C DEB
1 30261U 99025XW  13293.12203514  .00006338  00000-0  64937-3 0   479
2 30261 098.8087 132.0749 0228987 215.2729 270.2863 14.73400219362318
0 FENGYUN 1C DEB
1 30261U 99025XW  13294.80864823  .00008399  00000-0  85701-3 0   483
2 30261 098.8088 133.9071 0229017 209.9747 216.5703 14.73417855362569
0 FENGYUN 1C DEB
1 30261U 99025XW  13295.82794106  .00008732  00000-0  89028-3 0   490
2 30261 098.8091 135.0143 0229029 206.7683 223.2523 14.73429393362715
